CCSDS_OMM_VERS = 2.0
CREATION_DATE  = 
ORIGINATOR     = 

OBJECT_NAME    = ALOS-2
OBJECT_ID      = 2014-029A
CENTER_NAME    = EARTH
REF_FRAME      = TEME
TIME_SYSTEM    = UTC
MEAN_ELEMENT_THEORY = SGP/SGP4

EPOCH          = 2026-03-25T14:41:48.836256
MEAN_MOTION    = 14.79434101
ECCENTRICITY   = .00018425
INCLINATION    = 97.9186
RA_OF_ASC_NODE = 182.9777
ARG_OF_PERICENTER = 104.4619
MEAN_ANOMALY   = 255.6798

EPHEMERIS_TYPE = 0
CLASSIFICATION_TYPE = U
NORAD_CAT_ID   = 39766
ELEMENT_SET_NO = 999
REV_AT_EPOCH   = 63922
BSTAR          = .22932989E-3
MEAN_MOTION_DOT = .166E-4
MEAN_MOTION_DDOT = 0

CCSDS_OMM_VERS = 2.0
CREATION_DATE  = 
ORIGINATOR     = 

OBJECT_NAME    = YAOGAN-29
OBJECT_ID      = 2015-069A
CENTER_NAME    = EARTH
REF_FRAME      = TEME
TIME_SYSTEM    = UTC
MEAN_ELEMENT_THEORY = SGP/SGP4

EPOCH          = 2026-03-25T15:36:29.191104
MEAN_MOTION    = 14.83014420
ECCENTRICITY   = .00007564
INCLINATION    = 98.0122
RA_OF_ASC_NODE = 113.1211
ARG_OF_PERICENTER = 11.9720
MEAN_ANOMALY   = 348.1511

EPHEMERIS_TYPE = 0
CLASSIFICATION_TYPE = U
NORAD_CAT_ID   = 41038
ELEMENT_SET_NO = 999
REV_AT_EPOCH   = 55824
BSTAR          = .11079908E-3
MEAN_MOTION_DOT = .846E-5
MEAN_MOTION_DDOT = 0

CCSDS_OMM_VERS = 2.0
CREATION_DATE  = 
ORIGINATOR     = 

OBJECT_NAME    = ASTRO-H (HITOMI)
OBJECT_ID      = 2016-012A
CENTER_NAME    = EARTH
REF_FRAME      = TEME
TIME_SYSTEM    = UTC
MEAN_ELEMENT_THEORY = SGP/SGP4

EPOCH          = 2026-03-25T15:07:47.445600
MEAN_MOTION    = 15.10101956
ECCENTRICITY   = .00096072
INCLINATION    = 30.9989
RA_OF_ASC_NODE = 253.6706
ARG_OF_PERICENTER = 131.9290
MEAN_ANOMALY   = 228.2168

EPHEMERIS_TYPE = 0
CLASSIFICATION_TYPE = U
NORAD_CAT_ID   = 41337
ELEMENT_SET_NO = 999
REV_AT_EPOCH   = 55464
BSTAR          = .17032802E-3
MEAN_MOTION_DOT = .2941E-4
MEAN_MOTION_DDOT = 0

CCSDS_OMM_VERS = 2.0
CREATION_DATE  = 
ORIGINATOR     = 

OBJECT_NAME    = HXMT (HUIYAN)
OBJECT_ID      = 2017-034A
CENTER_NAME    = EARTH
REF_FRAME      = TEME
TIME_SYSTEM    = UTC
MEAN_ELEMENT_THEORY = SGP/SGP4

EPOCH          = 2026-03-25T15:21:22.146624
MEAN_MOTION    = 15.17663809
ECCENTRICITY   = .00323223
INCLINATION    = 43.0145
RA_OF_ASC_NODE = 287.9837
ARG_OF_PERICENTER = 333.2583
MEAN_ANOMALY   = 26.6598

EPHEMERIS_TYPE = 0
CLASSIFICATION_TYPE = U
NORAD_CAT_ID   = 42758
ELEMENT_SET_NO = 999
REV_AT_EPOCH   = 48496
BSTAR          = .25404051E-3
MEAN_MOTION_DOT = .5038E-4
MEAN_MOTION_DDOT = 0

CCSDS_OMM_VERS = 2.0
CREATION_DATE  = 
ORIGINATOR     = 

OBJECT_NAME    = SAOCOM 1A
OBJECT_ID      = 2018-076A
CENTER_NAME    = EARTH
REF_FRAME      = TEME
TIME_SYSTEM    = UTC
MEAN_ELEMENT_THEORY = SGP/SGP4

EPOCH          = 2026-03-25T15:00:42.954624
MEAN_MOTION    = 14.82159291
ECCENTRICITY   = .00015197
INCLINATION    = 97.8905
RA_OF_ASC_NODE = 272.5731
ARG_OF_PERICENTER = 87.1142
MEAN_ANOMALY   = 273.0245

EPHEMERIS_TYPE = 0
CLASSIFICATION_TYPE = U
NORAD_CAT_ID   = 43641
ELEMENT_SET_NO = 999
REV_AT_EPOCH   = 40372
BSTAR          = .12590886E-3
MEAN_MOTION_DOT = .95E-5
MEAN_MOTION_DDOT = 0

CCSDS_OMM_VERS = 2.0
CREATION_DATE  = 
ORIGINATOR     = 

OBJECT_NAME    = H-2A R/B
OBJECT_ID      = 2018-084L
CENTER_NAME    = EARTH
REF_FRAME      = TEME
TIME_SYSTEM    = UTC
MEAN_ELEMENT_THEORY = SGP/SGP4

EPOCH          = 2026-03-25T12:06:43.027488
MEAN_MOTION    = 15.42005973
ECCENTRICITY   = .00240666
INCLINATION    = 98.8710
RA_OF_ASC_NODE = 305.2796
ARG_OF_PERICENTER = 330.4775
MEAN_ANOMALY   = 29.5107

EPHEMERIS_TYPE = 0
CLASSIFICATION_TYPE = U
NORAD_CAT_ID   = 43682
ELEMENT_SET_NO = 999
REV_AT_EPOCH   = 40821
BSTAR          = .4850234E-3
MEAN_MOTION_DOT = .20811E-3
MEAN_MOTION_DDOT = 0

CCSDS_OMM_VERS = 2.0
CREATION_DATE  = 
ORIGINATOR     = 

OBJECT_NAME    = SAOCOM 1B
OBJECT_ID      = 2020-059A
CENTER_NAME    = EARTH
REF_FRAME      = TEME
TIME_SYSTEM    = UTC
MEAN_ELEMENT_THEORY = SGP/SGP4

EPOCH          = 2026-03-25T15:45:41.229216
MEAN_MOTION    = 14.82151313
ECCENTRICITY   = .00014673
INCLINATION    = 97.8904
RA_OF_ASC_NODE = 271.7017
ARG_OF_PERICENTER = 86.0290
MEAN_ANOMALY   = 274.1091

EPHEMERIS_TYPE = 0
CLASSIFICATION_TYPE = U
NORAD_CAT_ID   = 46265
ELEMENT_SET_NO = 999
REV_AT_EPOCH   = 30111
BSTAR          = .26552268E-4
MEAN_MOTION_DOT = .159E-5
MEAN_MOTION_DDOT = 0

CCSDS_OMM_VERS = 2.0
CREATION_DATE  = 
ORIGINATOR     = 

OBJECT_NAME    = CSS (TIANHE)
OBJECT_ID      = 2021-035A
CENTER_NAME    = EARTH
REF_FRAME      = TEME
TIME_SYSTEM    = UTC
MEAN_ELEMENT_THEORY = SGP/SGP4

EPOCH          = 2026-03-25T12:24:55.636704
MEAN_MOTION    = 15.61472040
ECCENTRICITY   = .000456
INCLINATION    = 41.4665
RA_OF_ASC_NODE = 111.7955
ARG_OF_PERICENTER = 19.2317
MEAN_ANOMALY   = 340.8694

EPHEMERIS_TYPE = 0
CLASSIFICATION_TYPE = U
NORAD_CAT_ID   = 48274
ELEMENT_SET_NO = 999
REV_AT_EPOCH   = 28008
BSTAR          = .24918078E-3
MEAN_MOTION_DOT = .21659E-3
MEAN_MOTION_DDOT = 0

CCSDS_OMM_VERS = 2.0
CREATION_DATE  = 
ORIGINATOR     = 

OBJECT_NAME    = COSMOS 2550
OBJECT_ID      = 2021-056A
CENTER_NAME    = EARTH
REF_FRAME      = TEME
TIME_SYSTEM    = UTC
MEAN_ELEMENT_THEORY = SGP/SGP4

EPOCH          = 2026-03-25T14:57:58.652064
MEAN_MOTION    = 15.33837463
ECCENTRICITY   = .0008329
INCLINATION    = 67.1433
RA_OF_ASC_NODE = 352.6841
ARG_OF_PERICENTER = 269.7204
MEAN_ANOMALY   = 90.2996

EPHEMERIS_TYPE = 0
CLASSIFICATION_TYPE = U
NORAD_CAT_ID   = 48865
ELEMENT_SET_NO = 999
REV_AT_EPOCH   = 26590
BSTAR          = .338139E-6
MEAN_MOTION_DOT = -.181E-5
MEAN_MOTION_DDOT = 0

CCSDS_OMM_VERS = 2.0
CREATION_DATE  = 
ORIGINATOR     = 

OBJECT_NAME    = CZ-2C R/B
OBJECT_ID      = 2022-058K
CENTER_NAME    = EARTH
REF_FRAME      = TEME
TIME_SYSTEM    = UTC
MEAN_ELEMENT_THEORY = SGP/SGP4

EPOCH          = 2026-03-25T10:49:25.367520
MEAN_MOTION    = 15.55351120
ECCENTRICITY   = .0041554
INCLINATION    = 50.1872
RA_OF_ASC_NODE = 237.1422
ARG_OF_PERICENTER = 268.1846
MEAN_ANOMALY   = 91.4366

EPHEMERIS_TYPE = 0
CLASSIFICATION_TYPE = U
NORAD_CAT_ID   = 52794
ELEMENT_SET_NO = 999
REV_AT_EPOCH   = 21258
BSTAR          = .43993725E-3
MEAN_MOTION_DOT = .31308E-3
MEAN_MOTION_DDOT = 0

CCSDS_OMM_VERS = 2.0
CREATION_DATE  = 
ORIGINATOR     = 

OBJECT_NAME    = CZ-2C R/B
OBJECT_ID      = 2022-132E
CENTER_NAME    = EARTH
REF_FRAME      = TEME
TIME_SYSTEM    = UTC
MEAN_ELEMENT_THEORY = SGP/SGP4

EPOCH          = 2026-03-25T10:41:46.623264
MEAN_MOTION    = 15.63313395
ECCENTRICITY   = .00184005
INCLINATION    = 97.2967
RA_OF_ASC_NODE = 88.2586
ARG_OF_PERICENTER = 40.4738
MEAN_ANOMALY   = 319.7886

EPHEMERIS_TYPE = 0
CLASSIFICATION_TYPE = U
NORAD_CAT_ID   = 54039
ELEMENT_SET_NO = 999
REV_AT_EPOCH   = 19283
BSTAR          = .53468779E-3
MEAN_MOTION_DOT = .49575E-3
MEAN_MOTION_DDOT = 0

CCSDS_OMM_VERS = 2.0
CREATION_DATE  = 
ORIGINATOR     = 

OBJECT_NAME    = GSLV R/B
OBJECT_ID      = 2022-138AN
CENTER_NAME    = EARTH
REF_FRAME      = TEME
TIME_SYSTEM    = UTC
MEAN_ELEMENT_THEORY = SGP/SGP4

EPOCH          = 2026-03-25T11:57:22.376160
MEAN_MOTION    = 14.96876968
ECCENTRICITY   = .0024109
INCLINATION    = 87.3865
RA_OF_ASC_NODE = 161.0707
ARG_OF_PERICENTER = 94.4790
MEAN_ANOMALY   = 265.9197

EPHEMERIS_TYPE = 0
CLASSIFICATION_TYPE = U
NORAD_CAT_ID   = 54149
ELEMENT_SET_NO = 999
REV_AT_EPOCH   = 18629
BSTAR          = .23562616E-3
MEAN_MOTION_DOT = .2746E-4
MEAN_MOTION_DDOT = 0

